{
  "type": "FeatureCollection",
  "features": [
    {
      "type": "Feature",
      "properties": {
        "norad_id": 35220,
        "name": "FENGYUN 1C DEB",
        "group": "fengyun-1c-debris",
        "lat": 32.857247889652044,
        "lon": 40.15486956405175,
        "alt_km": 797.0079391627314,
        "timestamp": "2025-12-02T06:27:53.301317+00:00",
        "meta_object_name": "FENGYUN 1C DEB",
        "meta_object_id": "1999-025DQC",
        "meta_epoch": "2025-11-29T04:01:45.336576",
        "meta_mean_motion": 14.22417293,
        "meta_eccentricity": 0.00430148,
        "meta_inclination": 99.0273,
        "meta_ra_of_asc_node": 42.8731,
        "meta_arg_of_pericenter": 347.7836,
        "meta_mean_anomaly": 12.2294,
        "meta_ephemeris_type": 0,
        "meta_classification_type": "U",
        "meta_norad_cat_id": 35220,
        "meta_element_set_no": 999,
        "meta_rev_at_epoch": 62990,
        "meta_bstar": 0.0016155953,
        "meta_mean_motion_dot": 3.587e-05,
        "meta_mean_motion_ddot": 0,
        "tle_line1": "1 35220U 99025DQC 25333.16788584  .00003587  00000+0  16156-2 0  9993",
        "tle_line2": "2 35220  99.0273  42.8731 0043014 347.7836  12.2294 14.22417293629900"
      },
      "geometry": {
        "type": "Point",
        "coordinates": [
          40.15486956405175,
          32.857247889652044
        ]
      }
    },
    {
      "type": "Feature",
      "properties": {
        "norad_id": 35223,
        "name": "FENGYUN 1C DEB",
        "group": "fengyun-1c-debris",
        "lat": 3.3915040833243775,
        "lon": -43.16144572631649,
        "alt_km": 513.9632188243459,
        "timestamp": "2025-12-02T06:27:53.301328+00:00",
        "meta_object_name": "FENGYUN 1C DEB",
        "meta_object_id": "1999-025DQF",
        "meta_epoch": "2025-11-30T04:26:29.555520",
        "meta_mean_motion": 14.88592881,
        "meta_eccentricity": 0.01303122,
        "meta_inclination": 98.9708,
        "meta_ra_of_asc_node": 315.0165,
        "meta_arg_of_pericenter": 6.6362,
        "meta_mean_anomaly": 353.6538,
        "meta_ephemeris_type": 0,
        "meta_classification_type": "U",
        "meta_norad_cat_id": 35223,
        "meta_element_set_no": 999,
        "meta_rev_at_epoch": 93695,
        "meta_bstar": 0.0010792794,
        "meta_mean_motion_dot": 0.00011714,
        "meta_mean_motion_ddot": 0,
        "tle_line1": "1 35223U 99025DQF 25334.18506430  .00011714  00000+0  10793-2 0  9999",
        "tle_line2": "2 35223  98.9708 315.0165 0130312   6.6362 353.6538 14.88592881936951"
      },
      "geometry": {
        "type": "Point",
        "coordinates": [
          -43.16144572631649,
          3.3915040833243775
        ]
      }
    },
    {
      "type": "Feature",
      "properties": {
        "norad_id": 35229,
        "name": "FENGYUN 1C DEB",
        "group": "fengyun-1c-debris",
        "lat": 66.47323790338139,
        "lon": -104.96672486985514,
        "alt_km": 710.3660644281263,
        "timestamp": "2025-12-02T06:27:53.301338+00:00",
        "meta_object_name": "FENGYUN 1C DEB",
        "meta_object_id": "1999-025DQM",
        "meta_epoch": "2025-11-28T22:58:43.671360",
        "meta_mean_motion": 14.59545172,
        "meta_eccentricity": 0.00472941,
        "meta_inclination": 98.4585,
        "meta_ra_of_asc_node": 51.671,
        "meta_arg_of_pericenter": 255.3991,
        "meta_mean_anomaly": 104.1961,
        "meta_ephemeris_type": 0,
        "meta_classification_type": "U",
        "meta_norad_cat_id": 35229,
        "meta_element_set_no": 999,
        "meta_rev_at_epoch": 64305,
        "meta_bstar": 0.0053774326,
        "meta_mean_motion_dot": 0.00025992,
        "meta_mean_motion_ddot": 0,
        "tle_line1": "1 35229U 99025DQM 25332.95744990  .00025992  00000+0  53774-2 0  9992",
        "tle_line2": "2 35229  98.4585  51.6710 0047294 255.3991 104.1961 14.59545172643055"
      },
      "geometry": {
        "type": "Point",
        "coordinates": [
          -104.96672486985514,
          66.47323790338139
        ]
      }
    },
    {
      "type": "Feature",
      "properties": {
        "norad_id": 35231,
        "name": "FENGYUN 1C DEB",
        "group": "fengyun-1c-debris",
        "lat": -0.09018012059622901,
        "lon": 19.69223567614957,
        "alt_km": 857.9439171639151,
        "timestamp": "2025-12-02T06:27:53.301348+00:00",
        "meta_object_name": "FENGYUN 1C DEB",
        "meta_object_id": "1999-025DQP",
        "meta_epoch": "2025-12-01T13:29:19.986432",
        "meta_mean_motion": 14.14526436,
        "meta_eccentricity": 0.00379402,
        "meta_inclination": 98.7221,
        "meta_ra_of_asc_node": 18.9876,
        "meta_arg_of_pericenter": 116.1393,
        "meta_mean_anomaly": 244.3691,
        "meta_ephemeris_type": 0,
        "meta_classification_type": "U",
        "meta_norad_cat_id": 35231,
        "meta_element_set_no": 999,
        "meta_rev_at_epoch": 91344,
        "meta_bstar": 3.0838637e-05,
        "meta_mean_motion_dot": 1.7e-07,
        "meta_mean_motion_ddot": 0,
        "tle_line1": "1 35231U 99025DQP 25335.56203688  .00000017  00000+0  30839-4 0  9999",
        "tle_line2": "2 35231  98.7221  18.9876 0037940 116.1393 244.3691 14.14526436913447"
      },
      "geometry": {
        "type": "Point",
        "coordinates": [
          19.69223567614957,
          -0.09018012059622901
        ]
      }
    },
    {
      "type": "Feature",
      "properties": {
        "norad_id": 35233,
        "name": "FENGYUN 1C DEB",
        "group": "fengyun-1c-debris",
        "lat": 48.69075792807108,
        "lon": -94.76619889448398,
        "alt_km": 776.5221416186168,
        "timestamp": "2025-12-02T06:27:53.301357+00:00",
        "meta_object_name": "FENGYUN 1C DEB",
        "meta_object_id": "1999-025DQR",
        "meta_epoch": "2025-11-29T12:57:02.668608",
        "meta_mean_motion": 14.41620526,
        "meta_eccentricity": 0.00411297,
        "meta_inclination": 98.7712,
        "meta_ra_of_asc_node": 72.3131,
        "meta_arg_of_pericenter": 300.6155,
        "meta_mean_anomaly": 71.0123,
        "meta_ephemeris_type": 0,
        "meta_classification_type": "U",
        "meta_norad_cat_id": 35233,
        "meta_element_set_no": 999,
        "meta_rev_at_epoch": 90986,
        "meta_bstar": 0.0016467683,
        "meta_mean_motion_dot": 5.371e-05,
        "meta_mean_motion_ddot": 0,
        "tle_line1": "1 35233U 99025DQR 25333.53961422  .00005371  00000+0  16468-2 0  9991",
        "tle_line2": "2 35233  98.7712  72.3131 0041129 300.6155  71.0123 14.41620526909863"
      },
      "geometry": {
        "type": "Point",
        "coordinates": [
          -94.76619889448398,
          48.69075792807108
        ]
      }
    },
    {
      "type": "Feature",
      "properties": {
        "norad_id": 35234,
        "name": "FENGYUN 1C DEB",
        "group": "fengyun-1c-debris",
        "lat": 78.88533474345338,
        "lon": -41.84473045541889,
        "alt_km": 726.7016202685027,
        "timestamp": "2025-12-02T06:27:53.301367+00:00",
        "meta_object_name": "FENGYUN 1C DEB",
        "meta_object_id": "1999-025DQS",
        "meta_epoch": "2025-11-30T08:12:18.177984",
        "meta_mean_motion": 14.6543294,
        "meta_eccentricity": 0.00997999,
        "meta_inclination": 98.0706,
        "meta_ra_of_asc_node": 2.503,
        "meta_arg_of_pericenter": 302.0355,
        "meta_mean_anomaly": 57.1183,
        "meta_ephemeris_type": 0,
        "meta_classification_type": "U",
        "meta_norad_cat_id": 35234,
        "meta_element_set_no": 999,
        "meta_rev_at_epoch": 94174,
        "meta_bstar": 0.00078489376,
        "meta_mean_motion_dot": 4.518e-05,
        "meta_mean_motion_ddot": 0,
        "tle_line1": "1 35234U 99025DQS 25334.34187706  .00004518  00000+0  78489-3 0  9991",
        "tle_line2": "2 35234  98.0706   2.5030 0099799 302.0355  57.1183 14.65432940941748"
      },
      "geometry": {
        "type": "Point",
        "coordinates": [
          -41.84473045541889,
          78.88533474345338
        ]
      }
    },
    {
      "type": "Feature",
      "properties": {
        "norad_id": 35239,
        "name": "FENGYUN 1C DEB",
        "group": "fengyun-1c-debris",
        "lat": 43.84227939292776,
        "lon": -33.64000136104601,
        "alt_km": 1017.483590768421,
        "timestamp": "2025-12-02T06:27:53.301377+00:00",
        "meta_object_name": "FENGYUN 1C DEB",
        "meta_object_id": "1999-025DQX",
        "meta_epoch": "2025-11-29T09:25:46.263648",
        "meta_mean_motion": 13.69178243,
        "meta_eccentricity": 0.02300242,
        "meta_inclination": 99.2661,
        "meta_ra_of_asc_node": 134.5723,
        "meta_arg_of_pericenter": 45.1841,
        "meta_mean_anomaly": 316.7752,
        "meta_ephemeris_type": 0,
        "meta_classification_type": "U",
        "meta_norad_cat_id": 35239,
        "meta_element_set_no": 999,
        "meta_rev_at_epoch": 57948,
        "meta_bstar": 0.00061296182,
        "meta_mean_motion_dot": 5.98e-06,
        "meta_mean_motion_ddot": 0,
        "tle_line1": "1 35239U 99025DQX 25333.39289657  .00000598  00000+0  61296-3 0  9990",
        "tle_line2": "2 35239  99.2661 134.5723 0230024  45.1841 316.7752 13.69178243579484"
      },
      "geometry": {
        "type": "Point",
        "coordinates": [
          -33.64000136104601,
          43.84227939292776
        ]
      }
    }
  ]
}